SL-16 R/B               
1 25400U 98043G   26052.45367870  .00000066  00000+0  46728-4 0  9992
2 25400  98.8227   5.7049 0010850  64.0503 296.1794 14.26045658436671
SL-16 R/B               
1 25407U 98045B   26052.61010331  .00000056  00000+0  52268-4 0  9991
2 25407  71.0099 215.3870 0005906  35.3129 324.8385 14.16191244424821
ISS (ZARYA)             
1 25544U 98067A   26052.57165169  .00010573  00000+0  20534-3 0  9997
2 25544  51.6321 152.0271 0008520 119.1208 241.0634 15.48184707553834
CZ-4B R/B               
1 25732U 99025C   26052.35972478  .00000035  00000+0  37577-4 0  9994
2 25732  98.6662  97.0255 0037622  33.4209 341.6980 14.18261840385852
OKEAN-O                 
1 25860U 99039A   26052.15902286  .00000603  00000+0  85959-4 0  9997
2 25860  97.9481 112.2157 0001647  78.0742 282.0654 14.80306435431948
SL-16 R/B               
1 25861U 99039B   26052.15449040  .00000493  00000+0  69342-4 0  9997
2 25861  98.0005 111.2727 0013760 314.6478  45.3611 14.81706247434413
DELTA 2 R/B             
1 25876U 99041E   26052.30087660  .00001599  00000+0  29496-3 0  9992
2 25876  51.7661   6.7306 0502218 300.0387  55.1625 14.11775044360712
HELIOS 1B               
1 25977U 99064A   26052.30226167  .00001676  00000+0  19071-3 0  9990
2 25977  98.1713 314.0629 0002381  97.1685 262.9802 14.87624818682820
TERRA                   
1 25994U 99068A   26052.63999335  .00000352  00000+0  80762-4 0  9999
2 25994  97.9629 106.6851 0001553 196.5563 325.4378 14.60995630392738
SL-16 R/B               
1 26070U 00006B   26052.48002975  .00000090  00000+0  69907-4 0  9994
2 26070  71.0022 131.9219 0017807 212.6560 147.3463 14.15818635346261
TITAN 4B R/B            
1 26474U 00047B   26052.52867278  .00002819  00000+0  18151-3 0  9992
2 26474  67.9877  85.9505 0037609  54.9014 305.5652 15.09403805390473
ENVISAT                 
1 27386U 02009A   26052.49036428  .00000116  00000+0  51463-4 0  9998
2 27386  98.3701   6.4763 0001345  86.7297  24.2193 14.39030306256849
